{"fetched_at":"2026-07-18T17:30:21.126Z","source":"https://celestrak.org/NORAD/elements/gp.php?NAME=STRIX&FORMAT=JSON","constellation":"synspective","records":[{"OBJECT_NAME":"STRIX-1","OBJECT_ID":"2022-113A","EPOCH":"2026-07-18T07:10:10.863840","CLASSIFICATION_TYPE":"U","MEAN_MOTION":15.41089521,"ECCENTRICITY":0.00055925,"INCLINATION":97.447,"RA_OF_ASC_NODE":261.9041,"ARG_OF_PERICENTER":124.3677,"MEAN_ANOMALY":235.8099,"EPHEMERIS_TYPE":0,"NORAD_CAT_ID":53815,"ELEMENT_SET_NO":999,"REV_AT_EPOCH":21223,"BSTAR":0.00031653323,"MEAN_MOTION_DOT":0.00013017,"MEAN_MOTION_DDOT":0},{"OBJECT_NAME":"STRIX-3","OBJECT_ID":"2024-047A","EPOCH":"2026-07-18T06:12:03.790944","CLASSIFICATION_TYPE":"U","MEAN_MOTION":15.19838836,"ECCENTRICITY":0.00116377,"INCLINATION":97.6641,"RA_OF_ASC_NODE":175.4052,"ARG_OF_PERICENTER":323.3106,"MEAN_ANOMALY":36.733,"EPHEMERIS_TYPE":0,"NORAD_CAT_ID":59224,"ELEMENT_SET_NO":999,"REV_AT_EPOCH":12946,"BSTAR":0.00019657799,"MEAN_MOTION_DOT":0.00004148,"MEAN_MOTION_DDOT":0},{"OBJECT_NAME":"STRIX-4","OBJECT_ID":"2024-137A","EPOCH":"2026-07-18T02:28:22.421856","CLASSIFICATION_TYPE":"U","MEAN_MOTION":15.3337516,"ECCENTRICITY":0.00164958,"INCLINATION":43.015,"RA_OF_ASC_NODE":109.0015,"ARG_OF_PERICENTER":151.8163,"MEAN_ANOMALY":208.3587,"EPHEMERIS_TYPE":0,"NORAD_CAT_ID":60352,"ELEMENT_SET_NO":999,"REV_AT_EPOCH":10876,"BSTAR":0.0003443965,"MEAN_MOTION_DOT":0.00011125,"MEAN_MOTION_DDOT":0},{"OBJECT_NAME":"STRIX-2","OBJECT_ID":"2024-248A","EPOCH":"2026-07-18T07:17:50.127360","CLASSIFICATION_TYPE":"U","MEAN_MOTION":15.09207394,"ECCENTRICITY":0.00139504,"INCLINATION":97.63,"RA_OF_ASC_NODE":154.7725,"ARG_OF_PERICENTER":224.0996,"MEAN_ANOMALY":135.9121,"EPHEMERIS_TYPE":0,"NORAD_CAT_ID":62406,"ELEMENT_SET_NO":999,"REV_AT_EPOCH":8628,"BSTAR":0.00018236323,"MEAN_MOTION_DOT":0.0000284,"MEAN_MOTION_DDOT":0},{"OBJECT_NAME":"STRIX-5","OBJECT_ID":"2025-229A","EPOCH":"2026-07-17T23:19:40.045728","CLASSIFICATION_TYPE":"U","MEAN_MOTION":15.04600762,"ECCENTRICITY":0.00380535,"INCLINATION":41.9277,"RA_OF_ASC_NODE":116.6652,"ARG_OF_PERICENTER":255.1376,"MEAN_ANOMALY":104.5234,"EPHEMERIS_TYPE":0,"NORAD_CAT_ID":65971,"ELEMENT_SET_NO":999,"REV_AT_EPOCH":4161,"BSTAR":0.000143422,"MEAN_MOTION_DOT":0.00001883,"MEAN_MOTION_DDOT":0},{"OBJECT_NAME":"STRIX-6","OBJECT_ID":"2026-056A","EPOCH":"2026-07-18T07:11:37.954176","CLASSIFICATION_TYPE":"U","MEAN_MOTION":15.00334826,"ECCENTRICITY":0.0016626,"INCLINATION":50.2823,"RA_OF_ASC_NODE":202.7024,"ARG_OF_PERICENTER":3.0934,"MEAN_ANOMALY":357.0115,"EPHEMERIS_TYPE":0,"NORAD_CAT_ID":68291,"ELEMENT_SET_NO":999,"REV_AT_EPOCH":1794,"BSTAR":0.000093393202,"MEAN_MOTION_DOT":0.00000919,"MEAN_MOTION_DDOT":0},{"OBJECT_NAME":"STRIX-7","OBJECT_ID":"2026-112A","EPOCH":"2026-07-17T21:49:17.914368","CLASSIFICATION_TYPE":"U","MEAN_MOTION":15.01619741,"ECCENTRICITY":0.00250046,"INCLINATION":44.9083,"RA_OF_ASC_NODE":31.068,"ARG_OF_PERICENTER":222.476,"MEAN_ANOMALY":137.4177,"EPHEMERIS_TYPE":0,"NORAD_CAT_ID":69177,"ELEMENT_SET_NO":999,"REV_AT_EPOCH":849,"BSTAR":0.00015671206,"MEAN_MOTION_DOT":0.00001843,"MEAN_MOTION_DDOT":0},{"OBJECT_NAME":"STRIX-8","OBJECT_ID":"2026-146A","EPOCH":"2026-07-18T06:32:50.300160","CLASSIFICATION_TYPE":"U","MEAN_MOTION":15.04449216,"ECCENTRICITY":0.00067319,"INCLINATION":41.9907,"RA_OF_ASC_NODE":356.0444,"ARG_OF_PERICENTER":44.5812,"MEAN_ANOMALY":315.5556,"EPHEMERIS_TYPE":0,"NORAD_CAT_ID":69701,"ELEMENT_SET_NO":999,"REV_AT_EPOCH":324,"BSTAR":0.00016732192,"MEAN_MOTION_DOT":0.00002189,"MEAN_MOTION_DDOT":0}]}
