STRIX-1                 
1 53815U 22113A   26199.29873685  .00013017  00000+0  31653-3 0  9998
2 53815  97.4470 261.9041 0005592 124.3677 235.8099 15.41089521212231
STRIX-3                 
1 59224U 24047A   26199.25837721  .00004148  00000+0  19658-3 0  9999
2 59224  97.6641 175.4052 0011637 323.3106  36.7330 15.19838836129463
STRIX-4                 
1 60352U 24137A   26199.10303729  .00011125  00000+0  34440-3 0  9992
2 60352  43.0150 109.0015 0016495 151.8163 208.3587 15.33375160108766
STRIX-2                 
1 62406U 24248A   26199.30405240  .00002840  00000+0  18236-3 0  9999
2 62406  97.6300 154.7725 0013950 224.0996 135.9121 15.09207394 86282
STRIX-5                 
1 65971U 25229A   26198.97199127  .00001883  00000+0  14342-3 0  9995
2 65971  41.9277 116.6652 0038053 255.1376 104.5234 15.04600762 41617
STRIX-6                 
1 68291U 26056A   26199.29974484  .00000919  00000+0  93393-4 0  9998
2 68291  50.2823 202.7024 0016626   3.0934 357.0115 15.00334826 17940
STRIX-7                 
1 69177U 26112A   26198.90923512  .00001843  00000+0  15671-3 0  9997
2 69177  44.9083  31.0680 0025004 222.4760 137.4177 15.01619741  8498
STRIX-8                 
1 69701U 26146A   26199.27280440  .00002189  00000+0  16732-3 0  9997
2 69701  41.9907 356.0444 0006731  44.5812 315.5556 15.04449216  3247
